COMMENT,ORIGINATOR,NORAD_CAT_ID,OBJECT_NAME,OBJECT_TYPE,CLASSIFICATION_TYPE,INTLDES,EPOCH,EPOCH_MICROSECONDS,MEAN_MOTION,ECCENTRICITY,INCLINATION,RA_OF_ASC_NODE,ARG_OF_PERICENTER,MEAN_ANOMALY,EPHEMERIS_TYPE,ELEMENT_SET_NO,REV_AT_EPOCH,BSTAR,MEAN_MOTION_DOT,MEAN_MOTION_DDOT,FILE,TLE_LINE0,TLE_LINE1,TLE_LINE2,OBJECT_ID,OBJECT_NUMBER,SEMIMAJOR_AXIS,PERIOD,APOGEE,PERIGEE,DECAYED,date
GENERATED VIA SPACETRACK.ORG API,18 SPCS,48895,SPACEBEE-108,PAYLOAD,U,21059S,2023/3/22 14:24,497152,15.25503914,0.0008505,97.5837,216.9399,219.1959,140.8664,0,999,9616,0.0016332,0.0004153,0,3867735,0 SPACEBEE-108,1 48895U 21059S   23081.60061918  .00041530  00000-0  16332-2 0  9996,2 48895  97.5837 216.9399 0008505 219.1959 140.8664 15.25503914 96164,2021-059S,48895,6867.41,94.395,495.115,483.434,0,
GENERATED VIA SPACETRACK.ORG API,18 SPCS,48895,SPACEBEE-108,PAYLOAD,U,21059S,2023/3/22 20:42,615936,15.25525746,0.0008531,97.5835,217.2055,217.6363,142.4279,0,999,9620,0.00156,0.00039682,0,3868201,0 SPACEBEE-108,1 48895U 21059S   23081.86299324  .00039682  00000-0  15600-2 0  9990,2 48895  97.5835 217.2055 0008531 217.6363 142.4279 15.25525746 96208,2021-059S,48895,6867.344,94.394,495.068,483.351,0,
GENERATED VIA SPACETRACK.ORG API,18 SPCS,48895,SPACEBEE-108,PAYLOAD,U,21059S,2023/3/23 7:43,914144,15.25557715,0.0008524,97.5839,217.6711,216.1229,143.9434,0,999,9627,0.0013513,0.00034372,0,3868494,0 SPACEBEE-108,1 48895U 21059S   23082.32214021  .00034372  00000-0  13513-2 0  9995,2 48895  97.5839 217.6711 0008524 216.1229 143.9434 15.25557715 96279,2021-059S,48895,6867.248,94.392,494.967,483.26,0,
GENERATED VIA SPACETRACK.ORG API,18 SPCS,48895,SPACEBEE-108,PAYLOAD,U,21059S,2023/3/23 20:19,58240,15.25618191,0.0008496,97.5842,218.203,214.3019,145.7671,0,999,9635,0.0021055,0.00053834,0,3868572,0 SPACEBEE-108,1 48895U 21059S   23082.84686410  .00053834  00000-0  21055-2 0  9991,2 48895  97.5842 218.2030 0008496 214.3019 145.7671 15.25618191 96357,2021-059S,48895,6867.067,94.388,494.766,483.097,0,
GENERATED VIA SPACETRACK.ORG API,18 SPCS,48895,SPACEBEE-108,PAYLOAD,U,21059S,2023/3/23 21:53,948704,15.25625453,0.0008501,97.5843,218.2697,214.005,146.0643,0,999,9636,0.0021436,0.00054829,0,3868816,0 SPACEBEE-108,1 48895U 21059S   23082.91245311  .00054829  00000-0  21436-2 0  9998,2 48895  97.5843 218.2697 0008501 214.0050 146.0643 15.25625453 96369,2021-059S,48895,6867.045,94.388,494.748,483.072,0,
GENERATED VIA SPACETRACK.ORG API,18 SPCS,48895,SPACEBEE-108,PAYLOAD,U,21059S,2023/3/24 7:20,544128,15.25725817,0.0008458,97.5843,218.6687,212.5744,147.4973,0,999,9642,0.0048935,0.00126851,0,3869222,0 SPACEBEE-108,1 48895U 21059S   23083.30597852  .00126851  00000-0  48935-2 0  9990,2 48895  97.5843 218.6687 0008458 212.5744 147.4973 15.25725817 96429,2021-059S,48895,6866.744,94.381,494.417,482.801,0,
GENERATED VIA SPACETRACK.ORG API,18 SPCS,48895,SPACEBEE-108,PAYLOAD,U,21059S,2023/3/24 7:20,544128,15.25725817,0.0008458,97.5843,218.6687,212.5744,147.4973,0,999,9642,0.0048935,0.00126851,0,3869846,0 SPACEBEE-108,1 48895U 21059S   23083.30597852  .00126851  00000-0  48935-2 0  9990,2 48895  97.5843 218.6687 0008458 212.5744 147.4973 15.25725817 96429,2021-059S,48895,6866.744,94.381,494.417,482.801,0,
GENERATED VIA SPACETRACK.ORG API,18 SPCS,48895,SPACEBEE-108,PAYLOAD,U,21059S,2023/3/24 13:38,131392,15.25712697,0.0008476,97.5847,218.9349,211.0688,149.005,0,999,9646,0.0025601,0.00065764,0,3869674,0 SPACEBEE-108,1 48895U 21059S   23083.56832328  .00065764  00000-0  25601-2 0  9998,2 48895  97.5847 218.9349 0008476 211.0688 149.0050 15.25712697 96462,2021-059S,48895,6866.783,94.382,494.468,482.828,0,
GENERATED VIA SPACETRACK.ORG API,18 SPCS,48895,SPACEBEE-108,PAYLOAD,U,21059S,2023/3/24 21:30,700192,15.25735728,0.0008473,97.5847,219.2675,209.8692,150.2064,0,999,9651,0.0017126,0.0004387,0,3870109,0 SPACEBEE-108,1 48895U 21059S   23083.89624653  .00043870  00000-0  17126-2 0  9991,2 48895  97.5847 219.2675 0008473 209.8692 150.2064 15.25735728 96510,2021-059S,48895,6866.714,94.381,494.397,482.761,0,
GENERATED VIA SPACETRACK.ORG API,18 SPCS,48895,SPACEBEE-108,PAYLOAD,U,21059S,2023/3/24 21:30,700192,15.25735728,0.0008473,97.5847,219.2675,209.8692,150.2064,0,999,9651,0.0017126,0.0004387,0,3870208,0 SPACEBEE-108,1 48895U 21059S   23083.89624653  .00043870  00000-0  17126-2 0  9991,2 48895  97.5847 219.2675 0008473 209.8692 150.2064 15.25735728 96510,2021-059S,48895,6866.714,94.381,494.397,482.761,0,
GENERATED VIA SPACETRACK.ORG API,18 SPCS,48895,SPACEBEE-108,PAYLOAD,U,21059S,2023/3/25 21:07,221888,15.2582094,0.0008417,97.5845,220.2649,207.1174,152.9625,0,999,9666,0.0015698,0.00040289,0,3871104,0 SPACEBEE-108,1 48895U 21059S   23084.87997942  .00040289  00000-0  15698-2 0  9997,2 48895  97.5845 220.2649 0008417 207.1174 152.9625 15.25820940 96664,2021-059S,48895,6866.458,94.375,494.103,482.544,0,
GENERATED VIA SPACETRACK.ORG API,18 SPCS,48895,SPACEBEE-108,PAYLOAD,U,21059S,2023/3/26 0:16,480448,15.2583152,0.0008449,97.5844,220.3979,206.9481,153.1319,0,999,9668,0.0016022,0.0004114,0,3871186,0 SPACEBEE-108,1 48895U 21059S   23085.01113982  .00041140  00000-0  16022-2 0  9997,2 48895  97.5844 220.3979 0008449 206.9481 153.1319 15.25831520 96684,2021-059S,48895,6866.427,94.375,494.093,482.49,0,
GENERATED VIA SPACETRACK.ORG API,18 SPCS,48895,SPACEBEE-108,PAYLOAD,U,21059S,2023/3/26 22:18,431040,15.25896836,0.0008443,97.5843,221.3292,204.4447,155.6392,0,999,9682,0.0014194,0.00036487,0,3871964,0 SPACEBEE-108,1 48895U 21059S   23085.92924110  .00036487  00000-0  14194-2 0  9996,2 48895  97.5843 221.3292 0008443 204.4447 155.6392 15.25896836 96826,2021-059S,48895,6866.231,94.371,493.893,482.299,0,
GENERATED VIA SPACETRACK.ORG API,18 SPCS,48895,SPACEBEE-108,PAYLOAD,U,21059S,2023/3/26 22:18,431040,15.25896836,0.0008443,97.5843,221.3292,204.4447,155.6392,0,999,9682,0.0014194,0.00036487,0,3872040,0 SPACEBEE-108,1 48895U 21059S   23085.92924110  .00036487  00000-0  14194-2 0  9996,2 48895  97.5843 221.3292 0008443 204.4447 155.6392 15.25896836 96826,2021-059S,48895,6866.231,94.371,493.893,482.299,0,
GENERATED VIA SPACETRACK.ORG API,18 SPCS,48895,SPACEBEE-108,PAYLOAD,U,21059S,2023/3/27 7:44,310240,15.25926771,0.0008398,97.5842,221.7283,203.3629,156.7229,0,999,9688,0.0014389,0.00037025,0,3872569,0 SPACEBEE-108,1 48895U 21059S   23086.32270035  .00037025  00000-0  14389-2 0  9996,2 48895  97.5842 221.7283 0008398 203.3629 156.7229 15.25926771 96887,2021-059S,48895,6866.141,94.369,493.772,482.24,0,
GENERATED VIA SPACETRACK.ORG API,18 SPCS,48895,SPACEBEE-108,PAYLOAD,U,21059S,2023/3/27 21:54,361984,15.2597267,0.0008366,97.5843,222.3269,201.4006,158.6883,0,999,9697,0.0014455,0.00037247,0,3872915,0 SPACEBEE-108,1 48895U 21059S   23086.91287456  .00037247  00000-0  14455-2 0  9996,2 48895  97.5843 222.3269 0008366 201.4006 158.6883 15.25972670 96978,2021-059S,48895,6866.003,94.366,493.612,482.124,0,
GENERATED VIA SPACETRACK.ORG API,18 SPCS,48895,SPACEBEE-108,PAYLOAD,U,21059S,2023/3/28 4:12,554944,15.25992538,0.0008486,97.5847,222.5939,199.7065,160.3846,0,999,9701,0.0014873,0.00038356,0,3873014,0 SPACEBEE-108,1 48895U 21059S   23087.17516846  .00038356  00000-0  14873-2 0  9999,2 48895  97.5847 222.5939 0008486 199.7065 160.3846 15.25992538 97015,2021-059S,48895,6865.944,94.365,493.635,481.982,0,
GENERATED VIA SPACETRACK.ORG API,18 SPCS,48895,SPACEBEE-108,PAYLOAD,U,21059S,2023/3/28 8:55,16064,15.26008934,0.0008453,97.5847,222.7932,198.76,161.3328,0,999,9704,0.0014922,0.00038502,0,3873565,0 SPACEBEE-108,1 48895U 21059S   23087.37188676  .00038502  00000-0  14922-2 0  9995,2 48895  97.5847 222.7932 0008453 198.7600 161.3328 15.26008934 97046,2021-059S,48895,6865.894,94.364,493.563,481.956,0,
GENERATED VIA SPACETRACK.ORG API,18 SPCS,48895,SPACEBEE-108,PAYLOAD,U,21059S,2023/3/28 21:30,17856,15.26052663,0.0008414,97.5848,223.3257,197.1284,162.9671,0,999,9712,0.0015591,0.00040294,0,3873921,0 SPACEBEE-108,1 48895U 21059S   23087.89645854  .00040294  00000-0  15591-2 0  9992,2 48895  97.5848 223.3257 0008414 197.1284 162.9671 15.26052663 97127,2021-059S,48895,6865.763,94.361,493.405,481.851,0,
GENERATED VIA SPACETRACK.ORG API,18 SPCS,48895,SPACEBEE-108,PAYLOAD,U,21059S,2023/3/29 8:31,584512,15.26090979,0.000844,97.5847,223.7913,195.5546,164.5433,0,999,9719,0.0016205,0.00041941,0,3874299,0 SPACEBEE-108,1 48895U 21059S   23088.35544658  .00041941  00000-0  16205-2 0  9997,2 48895  97.5847 223.7913 0008440 195.5546 164.5433 15.26090979 97194,2021-059S,48895,6865.648,94.359,493.308,481.719,0,
GENERATED VIA SPACETRACK.ORG API,18 SPCS,48895,SPACEBEE-108,PAYLOAD,U,21059S,2023/3/29 8:31,584512,15.26090979,0.000844,97.5847,223.7913,195.5546,164.5433,0,999,9719,0.0016205,0.00041941,0,3874492,0 SPACEBEE-108,1 48895U 21059S   23088.35544658  .00041941  00000-0  16205-2 0  9997,2 48895  97.5847 223.7913 0008440 195.5546 164.5433 15.26090979 97194,2021-059S,48895,6865.648,94.359,493.308,481.719,0,
GENERATED VIA SPACETRACK.ORG API,18 SPCS,48895,SPACEBEE-108,PAYLOAD,U,21059S,2023/3/29 21:07,81568,15.26137542,0.0008457,97.5845,224.3236,194.0757,166.0246,0,999,9727,0.0016447,0.00042632,0,3874790,0 SPACEBEE-108,1 48895U 21059S   23088.87998937  .00042632  00000-0  16447-2 0  9993,2 48895  97.5845 224.3236 0008457 194.0757 166.0246 15.26137542 97279,2021-059S,48895,6865.509,94.356,493.18,481.568,0,
GENERATED VIA SPACETRACK.ORG API,18 SPCS,48895,SPACEBEE-108,PAYLOAD,U,21059S,2023/3/30 14:25,574240,15.26202249,0.0008464,97.5843,225.0556,192.126,167.9775,0,999,9738,0.0018112,0.00047075,0,3875554,0 SPACEBEE-108,1 48895U 21059S   23089.60121035  .00047075  00000-0  18112-2 0  9999,2 48895  97.5843 225.0556 0008464 192.1260 167.9775 15.26202249 97382,2021-059S,48895,6865.315,94.352,492.99,481.369,0,
